XRISM                   
1 57800U 23137A   24028.84481186  .00005712  00000+0  44897-3 0  9991
2 57800  31.0020 184.6672 0009882 259.0255 100.9268 14.99386036 21511
